SL-16 R/B               
1 19120U 88039B   16149.94684921 -.00000142  00000-0 -44650-4 0  9997
2 19120  71.0162  56.7872 0020063  53.8376 306.4601 14.19146638451609
COSMOS 1953             
1 19210U 88050A   16149.87726828  .00000446  00000-0  29497-4 0  9992
2 19210  82.5196  45.8507 0014804 127.3190 232.9389 15.04786654520037
SL-8 R/B                
1 19257U 88053B   16150.22412450  .00000076  00000-0  34093-4 0  9997
2 19257  74.0485 202.3894 0020593 191.7983 228.8977 14.37313757463602
COSMOS 1975             
1 19573U 88093A   16149.64166546  .00000755  00000-0  52939-4 0  9991
2 19573  82.5197 357.3953 0014919 161.6059 198.5710 15.03697323502014
SL-14 R/B               
1 19574U 88093B   16149.93004910  .00000136  00000-0  13696-4 0  9990
2 19574  82.5302 144.3077 0020372 306.0398 115.4541 14.83154040471404
SL-16 R/B               
1 19650U 88102B   16149.92808327 -.00000156  00000-0 -54882-4 0  9995
2 19650  70.9989 103.0737 0012699  41.0232 319.1844 14.15738791421334
INTERCOSMOS 24          
1 20261U 89080A   16149.85196574  .00000191  00000-0  57089-4 0  9996
2 20261  82.5974 258.8876 1203410 263.0003  83.3056 12.55766641218130
SL-14 R/B               
1 20262U 89080C   16150.51376162  .00000073  00000-0  13648-4 0  9997
2 20262  82.5924 301.8053 1237938  51.2860 319.2518 12.48813119213833
DELTA 1 R/B             
1 20323U 89089B   16150.02308022  .00000114  00000-0  38733-4 0  9998
2 20323  97.0644 151.6502 0071121 208.1878 151.5462 14.48122048399120
DELTA 2 R/B(1)          
1 20453U 90008B   16149.95812991  .00002157  00000-0  12656-3 0  9994
2 20453  35.6272 325.3624 0295062 216.0273 142.0222 14.81784462391158
COSMOS 2058             
1 20465U 90010A   16149.77035024  .00000549  00000-0  45041-4 0  9992
2 20465  82.4909 257.3621 0016728 144.9852 215.2474 14.97195421427814
SL-14 R/B               
1 20466U 90010B   16150.13833130  .00000097  00000-0  93973-5 0  9995
2 20466  82.5036  11.9296 0021138 156.0067 204.2137 14.81220410420640
SL-14 R/B               
1 20511U 90018B   16149.95077775  .00000147  00000-0  16397-4 0  9997
2 20511  82.5217 311.9089 0016071 295.1488 234.4561 14.79881517394135
HST                     
1 20580U 90037B   16149.92022199  .00000777  00000-0  37517-4 0  9997
2 20580  28.4709  25.9523 0002729   4.9182 104.3294 15.08370831232115
SL-16 R/B               
1 20625U 90046B   16150.24555762 -.00000249  00000-0 -10479-3 0  9994
2 20625  71.0005 234.9388 0015808 322.8057  57.2983 14.14601653343540
COSMOS 2084             
1 20663U 90055A   16150.17263807  .00000618  00000-0  71938-4 0  9990
2 20663  62.7938  69.4451 0122600  51.7590 309.4461 14.91206466402531
SL-6 R/B(2)             
1 20666U 90055D   16149.92541508  .00000411  00000-0  52510-4 0  9997
2 20666  62.7846 350.1572 0132536  71.4202 290.1234 14.91581374404387
SL-8 R/B                
1 20775U 90078B   16150.53519213  .00003952  00000-0  19641-3 0  9990
2 20775  82.9303   2.1278 0599850  82.1610 284.7203 14.28358741293959
SL-8 R/B                
1 21088U 91006B   16149.91329234  .00000109  00000-0  95402-4 0  9993
2 21088  82.9411 305.8845 0021562 318.5927 149.6293 13.77033555272442
OKEAN-3                 
1 21397U 91039A   16149.92944773  .00000436  00000-0  40052-4 0  9998
2 21397  82.5202 143.3402 0019781  82.8930 277.4538 14.92209029331412
COSMOS 2151             
1 21422U 91042A   16150.51497044  .00000347  00000-0  31960-4 0  9991
2 21422  82.5019 251.4891 0015560 131.9049 228.3500 14.91632490351303
SL-14 R/B               
1 21423U 91042B   16150.49574119  .00000085  00000-0  82397-5 0  9998
2 21423  82.4923 319.9532 0019070  69.3542 290.9713 14.79634895345841
ERS-1                   
1 21574U 91050A   16150.05433939  .00000089  00000-0  43937-4 0  9990
2 21574  98.4131  98.4236 0033717  24.7597 335.5199 14.37492466302404
ARIANE 40 R/B           
1 21610U 91050F   16149.72389301  .00000100  00000-0  45391-4 0  9996
2 21610  98.6575 196.7278 0003541  32.5878  75.2314 14.40735238304475
INTERCOSMOS 25          
1 21819U 91086A   16149.91929011  .00001507  00000-0  28919-3 0  9993
2 21819  82.5504 294.0207 1527054 184.2998 174.3563 12.04194493 66004
SL-14 R/B               
1 21820U 91086B   16149.91153917  .00000175  00000-0  31952-4 0  9991
2 21820  82.5597 345.1449 1577747 357.6444   1.7748 11.93163740 60954
SL-8 R/B                
1 21876U 92008B   16150.22075350  .00000024  00000-0  88027-5 0  9996
2 21876  82.9286  42.5762 0035540  28.1368  84.1569 13.75586713218596
SL-8 R/B                
1 21938U 92020B   16149.99978241  .00000105  00000-0  93692-4 0  9995
2 21938  82.9297 285.6757 0029248 181.4359 317.3380 13.75247864210485
SL-16 R/B               
1 22220U 92076B   16149.58971834 -.00000254  00000-0 -10372-3 0  9997
2 22220  70.9979 148.7926 0011506 147.9197 346.6893 14.16396827215980
SL-16 R/B               
1 22285U 92093B   16150.44627766  .00000291  00000-0  17486-3 0  9998
2 22285  71.0217 297.2634 0004836 328.0584  32.0244 14.14994707208251
COSMOS 2228             
1 22286U 92094A   16150.09660818  .00000324  00000-0  32979-4 0  9998
2 22286  82.5218  16.1741 0019640 319.9494  40.0274 14.87451590265393
SL-16 R/B               
1 22566U 93016B   16149.55234802  .00000186  00000-0  12069-3 0  9996
2 22566  71.0044 154.2837 0010464 347.1548  12.9306 14.14926495196851
COSMOS 2242             
1 22626U 93024A   16149.77959081  .00000301  00000-0  30493-4 0  9990
2 22626  82.5238  44.1556 0018152 320.6936  39.2962 14.87457361249001
SL-16 R/B               
1 22803U 93059B   16150.55950515  .00000231  00000-0  13937-3 0  9991
2 22803  70.9901 337.8112 0019298 251.8510 108.0512 14.16743479173946
ARIANE 40 R/B           
1 22830U 93061H   16150.53765565 -.00000018  00000-0  10891-4 0  9992
2 22830  98.8857 151.0457 0010304 333.8525 135.8110 14.31408770183367
COSMOS 2278             
1 23087U 94023A   16150.35197422  .00000260  00000-0  16230-3 0  9997
2 23087  71.0531  81.1878 0007186  80.9565 279.2370 14.13711732140248
SL-16 R/B               
1 23088U 94023B   16149.89360831 -.00000292  00000-0 -12688-3 0  9991
2 23088  71.0006   8.6277 0005175 301.9123  58.1496 14.14642318141197
SL-16 R/B               
1 23343U 94074B   16150.56597810  .00000021  00000-0  10703-4 0  9991
2 23343  98.1945 176.7914 0006103 213.1843 307.7924 14.76657070160215
SL-16 R/B               
1 23405U 94077B   16149.90355119  .00000111  00000-0  81611-4 0  9999
2 23405  70.9829 303.3435 0003618 219.6556 140.4302 14.15179471110897
ERS-2                   
1 23560U 95021A   16149.88915023  .00002566  00000-0  12674-3 0  9992
2 23560  98.5128  86.2119 0004362 148.7469 211.4022 15.18988478116988
ARIANE 40+ R/B          
1 23561U 95021B   16149.98625775  .00000084  00000-0  43180-4 0  9996
2 23561  98.7691 136.8189 0006272 324.7092  99.4393 14.37740592106049
SL-16 R/B               
1 23705U 95058B   16150.19143692 -.00000270  00000-0 -11453-3 0  9990
2 23705  71.0214 114.6654 0012010 174.4696 185.6561 14.15086531 62860
SL-16 R/B               
1 24298U 96051B   16150.45255299  .00000098  00000-0  79412-4 0  9994
2 24298  70.8336 150.9372 0013183  25.4035 334.7730 14.12402475 17630
ORBVIEW 2 (SEASTAR)     
1 24883U 97037A   16150.25256352  .00000080  00000-0  44868-4 0  9996
2 24883  98.5197 258.4937 0003063 141.9895 218.1506 14.33318001996903
SL-16 R/B               
1 25400U 98043G   16150.45339749  .00000012  00000-0  22836-4 0  9990
2 25400  98.4366 106.0971 0009558 346.1429  13.9488 14.25381937930401
SL-16 R/B               
1 25407U 98045B   16150.42472062 -.00000187  00000-0 -70780-4 0  9998
2 25407  71.0087 127.8845 0005651  65.5620 294.6092 14.15743547921868
ISS (ZARYA)             
1 25544U 98067A   16150.52441436  .00001766  00000-0  33253-4 0  9992
2 25544  51.6434 151.1314 0001777 129.9630  14.1851 15.54701277  2082
SL-8 R/B                
1 25723U 99022C   16149.91224318  .00007302  00000-0  14283-3 0  9995
2 25723  48.4187  47.5416 0011480 344.8800  70.3154 15.48349648946552
CZ-4B R/B               
1 25732U 99025C   16149.94054751  .00000005  00000-0  24514-4 0  9995
2 25732  98.9715 141.4224 0038449 104.6726 308.0486 14.17608985882097
OKEAN-O                 
1 25860U 99039A   16149.94215588  .00000164  00000-0  31216-4 0  9992
2 25860  98.1420 124.6415 0000939  74.8752 285.2561 14.76357326907036
SL-16 R/B               
1 25861U 99039B   16149.99868034  .00000077  00000-0  17980-4 0  9993
2 25861  98.0519 114.0539 0014479 236.7351 165.5689 14.78314836909015
TERRA                   
1 25994U 99068A   16150.20537961  .00000125  00000-0  37730-4 0  9999
2 25994  98.2119 224.7711 0001304 106.0738 254.0606 14.57102626874756
SL-14 R/B               
1 26874U 01032B   16150.19729913  .00022570  00000-0  11983-3 0  9998
2 26874  82.4597 302.6577 0005799 268.9629  91.0974 15.80312670832642
ENVISAT                 
1 27386U 02009A   16150.54395172  .00000009  00000-0  16909-4 0  9994
2 27386  98.2852 204.6296 0001295  79.2978 280.8359 14.37867223745947
IDEFIX & ARIANE 42P R/B 
1 27422U 02021B   16150.52073622 -.00000001  00000-0  15774-4 0  9992
2 27422  98.2306 166.0741 0011068 297.0271  62.9782 14.29243089731878
AQUA                    
1 27424U 02022A   16150.52255321  .00000171  00000-0  47894-4 0  9998
2 27424  98.1984  91.3556 0000804 117.5769   6.0896 14.57114475748408
CZ-4B R/B               
1 27432U 02024C   16149.87136918  .00000006  00000-0  26127-4 0  9998
2 27432  98.9347 116.4171 0051275  41.4458 347.9478 14.14016163724481
MIDORI II (ADEOS-II)    
1 27597U 02056A   16149.94716261  .00000071  00000-0  45752-4 0  9995
2 27597  98.3204 130.9818 0001935  60.1811 299.9562 14.27212868700610
H-2A R/B                
1 27601U 02056E   16150.17468234  .00000032  00000-0  27134-4 0  9993
2 27601  98.4190 224.2566 0071995 354.3469  57.2603 14.31714151702865
